NORAD_CAT_ID,OBJECT_NAME,OBJECT_TYPE,EPOCH,MEAN_MOTION,ECCENTRICITY,INCLINATION,RA_OF_ASC_NODE,ARG_OF_PERICENTER,MEAN_ANOMALY,BSTAR,MEAN_MOTION_DOT,MEAN_MOTION_DDOT,TLE_LINE0,TLE_LINE1,TLE_LINE2,SEMIMAJOR_AXIS,PERIOD,APOGEE,PERIGEE,DECAYED
56456.0,STARLINK-5995,PAYLOAD,2024-02-02 22:39:28,14.98328415,0.0002463,69.9989,275.2194,261.1943,98.8937,1.2285e-05,5.4e-07,0.0,0 STARLINK-5995,1 56456U 23064J   24033.94407668  .00000054  00000-0  12285-4 0  9998,2 56456  69.9989 275.2194 0002463 261.1943  98.8937 14.98328415 40541,6950.198,96.107,573.775,570.351,0.0
56456.0,STARLINK-5995,PAYLOAD,2024-02-03 01:51:44,14.98328996,0.0002458,69.9989,274.883,260.9876,99.1004,1.8625e-05,1.29e-06,0.0,0 STARLINK-5995,1 56456U 23064J   24034.07759618  .00000129  00000-0  18625-4 0  9995,2 56456  69.9989 274.8830 0002458 260.9876  99.1004 14.98328996 40924,6950.196,96.107,573.769,570.353,0.0
56456.0,STARLINK-5995,PAYLOAD,2024-02-03 21:05:20,14.98331368,0.0002504,69.9988,272.8634,259.2005,100.8872,-1.2265e-05,-2.39e-06,0.0,0 STARLINK-5995,1 56456U 23064J   24034.87871502 -.00000239  00000-0 -12265-4 0  9998,2 56456  69.9988 272.8634 0002504 259.2005 100.8872 14.98331368 40683,6950.189,96.107,573.794,570.313,0.0
56456.0,STARLINK-5995,PAYLOAD,2024-02-04 01:53:45,14.98331969,0.0002494,69.9988,272.3585,259.7581,100.3297,-4.3392e-06,-1.45e-06,0.0,0 STARLINK-5995,1 56456U 23064J   24035.07899421 -.00000145  00000-0 -43392-5 0  9993,2 56456  69.9988 272.3585 0002494 259.7581 100.3297 14.98331969 41072,6950.187,96.107,573.785,570.318,0.0
56456.0,STARLINK-5995,PAYLOAD,2024-02-04 22:43:29,14.98330702,0.0002514,69.9985,270.1699,256.3433,103.7446,9.7027e-06,2.3e-07,0.0,0 STARLINK-5995,1 56456U 23064J   24035.94687340  .00000023  00000-0  97027-5 0  9991,2 56456  69.9985 270.1699 0002514 256.3433 103.7446 14.98330702 40844,6950.191,96.107,573.803,570.308,0.0
56456.0,STARLINK-5995,PAYLOAD,2024-02-05 01:55:45,14.98331663,0.0002509,69.9985,269.8335,256.0203,104.0677,1.8772e-05,1.31e-06,0.0,0 STARLINK-5995,1 56456U 23064J   24036.08039239  .00000131  00000-0  18772-4 0  9994,2 56456  69.9985 269.8335 0002509 256.0203 104.0677 14.98331663 41222,6950.188,96.107,573.797,570.309,0.0
56456.0,STARLINK-5995,PAYLOAD,2024-02-05 08:20:18,14.98330862,0.0002457,69.9986,269.16,264.0465,96.0414,-1.5262e-06,-1.11e-06,0.0,0 STARLINK-5995,1 56456U 23064J   24036.34743373 -.00000111  00000-0 -15262-5 0  9996,2 56456  69.9986 269.1600 0002457 264.0465  96.0414 14.98330862 40905,6950.19,96.107,573.763,570.348,0.0
56456.0,STARLINK-5995,PAYLOAD,2024-02-05 22:45:30,14.98331899,0.0002475,69.9986,267.6448,265.2246,94.8631,1.433e-05,7.8e-07,0.0,0 STARLINK-5995,1 56456U 23064J   24036.94827195  .00000078  00000-0  14330-4 0  9991,2 56456  69.9986 267.6448 0002475 265.2246  94.8631 14.98331899 40995,6950.187,96.107,573.772,570.332,0.0
56456.0,STARLINK-5995,PAYLOAD,2024-02-06 00:21:38,14.98332474,0.0002471,69.9986,267.4766,265.3118,94.7759,2.0229e-05,1.48e-06,0.0,0 STARLINK-5995,1 56456U 23064J   24037.01503131  .00000148  00000-0  20229-4 0  9993,2 56456  69.9986 267.4766 0002471 265.3118  94.7759 14.98332474 41004,6950.185,96.107,573.768,570.333,0.0
56456.0,STARLINK-5995,PAYLOAD,2024-02-06 19:35:15,14.98332149,0.0002471,69.9985,265.4565,264.9084,95.1793,1.334e-05,6.6e-07,0.0,0 STARLINK-5995,1 56456U 23064J   24037.81615014  .00000066  00000-0  13340-4 0  9990,2 56456  69.9985 265.4565 0002471 264.9084  95.1793 14.98332149 41489,6950.186,96.107,573.769,570.334,0.0
56456.0,STARLINK-5995,PAYLOAD,2024-02-06 22:47:31,14.98332405,0.0002469,69.9985,265.1198,264.8208,95.2669,1.628e-05,1.01e-06,0.0,0 STARLINK-5995,1 56456U 23064J   24037.94966970  .00000101  00000-0  16280-4 0  9990,2 56456  69.9985 265.1198 0002469 264.8208  95.2669 14.98332405 41143,6950.185,96.107,573.766,570.334,0.0
56456.0,STARLINK-5995,PAYLOAD,2024-02-07 00:23:39,14.98333361,0.0002462,69.9985,264.9516,264.1378,95.95,2.6182e-05,2.19e-06,0.0,0 STARLINK-5995,1 56456U 23064J   24038.01642864  .00000219  00000-0  26182-4 0  9994,2 56456  69.9985 264.9516 0002462 264.1378  95.9500 14.98333361 41152,6950.182,96.107,573.759,570.336,0.0
56456.0,STARLINK-5995,PAYLOAD,2024-02-07 19:37:16,14.98325427,0.0002402,69.999,262.9326,260.7731,99.3156,-7.1307e-05,-9.44e-06,0.0,0 STARLINK-5995,1 56456U 23064J   24038.81755658 -.00000944  00000-0 -71307-4 0  9994,2 56456  69.9990 262.9326 0002402 260.7731  99.3156 14.98325427 41636,6950.207,96.107,573.741,570.403,0.0
56456.0,STARLINK-5995,PAYLOAD,2024-02-07 21:13:25,14.98324537,0.0002458,69.9986,262.7625,266.0478,94.04,-7.1415e-05,-9.45e-06,0.0,0 STARLINK-5995,1 56456U 23064J   24038.88431745 -.00000945  00000-0 -71415-4 0  9990,2 56456  69.9986 262.7625 0002458 266.0478  94.0400 14.98324537 41285,6950.21,96.107,573.783,570.366,0.0
56456.0,STARLINK-5995,PAYLOAD,2024-02-08 08:26:21,14.98327905,0.000253,69.9985,261.5838,266.1437,93.9433,-2.1911e-05,-3.54e-06,0.0,0 STARLINK-5995,1 56456U 23064J   24039.35163496 -.00000354  00000-0 -21911-4 0  9998,2 56456  69.9985 261.5838 0002530 266.1437  93.9433 14.98327905 41358,6950.199,96.107,573.823,570.306,0.0
56456.0,STARLINK-5995,PAYLOAD,2024-02-08 19:39:17,14.98333357,0.0002649,69.9982,260.4057,267.6965,92.3891,3.3699e-06,-5.3e-07,0.0,0 STARLINK-5995,1 56456U 23064J   24039.81895033 -.00000053  00000-0  33699-5 0  9990,2 56456  69.9982 260.4057 0002649 267.6965  92.3891 14.98333357 41785,6950.183,96.107,573.889,570.206,0.0
56456.0,STARLINK-5995,PAYLOAD,2024-02-08 21:15:25,14.98333912,0.0002643,69.9983,260.2374,267.7911,92.2945,1.0871e-05,3.7e-07,0.0,0 STARLINK-5995,1 56456U 23064J   24039.88570966  .00000037  00000-0  10871-4 0  9999,2 56456  69.9983 260.2374 0002643 267.7911  92.2945 14.98333912 41430,6950.181,96.107,573.883,570.209,0.0
56456.0,STARLINK-5995,PAYLOAD,2024-02-09 14:52:54,14.98328317,0.0002682,69.9982,258.386,268.7396,91.3456,6.6701e-05,7.03e-06,0.0,0 STARLINK-5995,1 56456U 23064J   24040.62007084  .00000703  00000-0  66701-4 0  9992,2 56456  69.9982 258.3860 0002682 268.7396  91.3456 14.98328317 41540,6950.198,96.107,573.927,570.199,0.0
56456.0,STARLINK-5995,PAYLOAD,2024-02-09 19:41:18,14.98328407,0.0002686,69.9983,257.8811,268.7978,91.2874,6.3093e-05,6.6e-06,0.0,0 STARLINK-5995,1 56456U 23064J   24040.82035098  .00000660  00000-0  63093-4 0  9993,2 56456  69.9983 257.8811 0002686 268.7978  91.2874 14.98328407 41937,6950.198,96.107,573.93,570.196,0.0
56456.0,STARLINK-5995,PAYLOAD,2024-02-10 13:18:46,14.98333637,0.0002558,69.9985,256.0294,269.6983,90.3883,-4.0602e-06,-1.41e-06,0.0,0 STARLINK-5995,1 56456U 23064J   24041.55470959 -.00000141  00000-0 -40602-5 0  9991,2 56456  69.9985 256.0294 0002558 269.6983  90.3883 14.98333637 41682,6950.182,96.107,573.825,570.269,0.0
56456.0,STARLINK-5995,PAYLOAD,2024-02-10 19:43:19,14.98334018,0.0002563,69.9985,255.3562,270.006,90.0806,1.1695e-06,-7.9e-07,0.0,0 STARLINK-5995,1 56456U 23064J   24041.82174839 -.00000079  00000-0  11695-5 0  9998,2 56456  69.9985 255.3562 0002563 270.0060  90.0806 14.98334018 42081,6950.18,96.107,573.827,570.264,0.0
56456.0,STARLINK-5995,PAYLOAD,2024-02-10 22:55:35,14.98333677,0.0002589,69.9985,255.0195,270.3721,89.7141,-1.0706e-05,-2.21e-06,0.0,0 STARLINK-5995,1 56456U 23064J   24041.95526859 -.00000221  00000-0 -10706-4 0  9996,2 56456  69.9985 255.0195 0002589 270.3721  89.7141 14.98333677 41744,6950.182,96.107,573.846,570.247,0.0
56456.0,STARLINK-5995,PAYLOAD,2024-02-11 14:56:55,14.983315,0.0002546,69.9985,253.3363,268.009,92.0778,3.4495e-06,-5.2e-07,0.0,0 STARLINK-5995,1 56456U 23064J   24042.62286782 -.00000052  00000-0  34495-5 0  9992,2 56456  69.9985 253.3363 0002546 268.0090  92.0778 14.98331500 41845,6950.188,96.107,573.823,570.284,0.0
56456.0,STARLINK-5995,PAYLOAD,2024-02-11 21:21:28,14.98331291,0.0002566,69.9986,252.6629,267.8904,92.1961,-1.8011e-06,-1.14e-06,0.0,0 STARLINK-5995,1 56456U 23064J   24042.88990760 -.00000114  00000-0 -18011-5 0  9994,2 56456  69.9986 252.6629 0002566 267.8904  92.1961 14.98331291 41882,6950.189,96.107,573.837,570.27,0.0
56456.0,STARLINK-5995,PAYLOAD,2024-02-11 22:57:36,14.98331508,0.0002565,69.9986,252.4946,268.1881,91.8984,5.3482e-07,-8.7e-07,0.0,0 STARLINK-5995,1 56456U 23064J   24042.95666731 -.00000087  00000-0  53482-6 0  9990,2 56456  69.9986 252.4946 0002565 268.1881  91.8984 14.98331508 42253,6950.188,96.107,573.836,570.271,0.0
56456.0,STARLINK-5995,PAYLOAD,2024-02-12 14:58:56,14.9833036,0.0002546,69.9986,250.811,263.308,96.7789,-1.8338e-05,-3.12e-06,0.0,0 STARLINK-5995,1 56456U 23064J   24043.62426765 -.00000312  00000-0 -18338-4 0  9997,2 56456  69.9986 250.8110 0002546 263.3080  96.7789 14.98330360 41997,6950.192,96.107,573.826,570.287,0.0
56456.0,STARLINK-5995,PAYLOAD,2024-02-12 21:23:29,14.98328877,0.0002583,69.9986,250.1376,263.5233,96.5632,-3.5963e-05,-5.22e-06,0.0,0 STARLINK-5995,1 56456U 23064J   24043.89130887 -.00000522  00000-0 -35963-4 0  9999,2 56456  69.9986 250.1376 0002583 263.5233  96.5632 14.98328877 42038,6950.196,96.107,573.857,570.266,0.0
56456.0,STARLINK-5995,PAYLOAD,2024-02-12 22:59:37,14.98329167,0.0002583,69.9986,249.9693,263.6995,96.387,-3.2157e-05,-4.77e-06,0.0,0 STARLINK-5995,1 56456U 23064J   24043.95806859 -.00000477  00000-0 -32157-4 0  9996,2 56456  69.9986 249.9693 0002583 263.6995  96.3870 14.98329167 42408,6950.195,96.107,573.856,570.265,0.0
56456.0,STARLINK-5995,PAYLOAD,2024-02-13 15:00:57,14.98327649,0.0002698,69.9984,248.2854,268.1348,91.9502,-3.7225e-05,-5.37e-06,0.0,0 STARLINK-5995,1 56456U 23064J   24044.62567034 -.00000537  00000-0 -37225-4 0  9998,2 56456  69.9984 248.2854 0002698 268.1348  91.9502 14.98327649 42143,6950.2,96.107,573.94,570.19,0.0
56456.0,STARLINK-5995,PAYLOAD,2024-02-13 21:25:30,14.98328189,0.0002689,69.9984,247.6122,268.2139,91.8712,-2.8812e-05,-4.37e-06,0.0,0 STARLINK-5995,1 56456U 23064J   24044.89271004 -.00000437  00000-0 -28812-4 0  9997,2 56456  69.9984 247.6122 0002689 268.2139  91.8712 14.98328189 42189,6950.198,96.107,573.932,570.195,0.0
